[{"OBJECT_NAME":"FLOCK 4BE-27","OBJECT_ID":"2024-149AX","EPOCH":"2026-03-09T18:04:53.053248","MEAN_MOTION":15.32593322,"ECCENTRICITY":0.00027324,"INCLINATION":97.3862,"RA_OF_ASC_NODE":150.6783,"ARG_OF_PERICENTER":305.898,"MEAN_ANOMALY":54.2008,"EPHEMERIS_TYPE":0,"CLASSIFICATION_TYPE":"U","NORAD_CAT_ID":60513,"ELEMENT_SET_NO":999,"REV_AT_EPOCH":8690,"BSTAR":0.00036576028,"MEAN_MOTION_DOT":0.00011439,"MEAN_MOTION_DDOT":0},{"OBJECT_NAME":"STARLINK-35545","OBJECT_ID":"2025-236Z","EPOCH":"2026-03-09T11:38:15.582912","MEAN_MOTION":15.30191407,"ECCENTRICITY":0.0001675,"INCLINATION":53.16,"RA_OF_ASC_NODE":104.794,"ARG_OF_PERICENTER":77.205,"MEAN_ANOMALY":282.9138,"EPHEMERIS_TYPE":0,"CLASSIFICATION_TYPE":"U","NORAD_CAT_ID":66109,"ELEMENT_SET_NO":999,"REV_AT_EPOCH":2291,"BSTAR":0.00099837529,"MEAN_MOTION_DOT":0.00029319,"MEAN_MOTION_DDOT":0}]
