FLOCK 4BE-27            
1 60513U 24149AX  26068.75339182  .00011439  00000+0  36576-3 0  9992
2 60513  97.3862 150.6783 0002732 305.8980  54.2008 15.32593322 86906
STARLINK-35545          
1 66109U 25236Z   26068.48490258  .00029319  00000+0  99838-3 0  9995
2 66109  53.1600 104.7940 0001675  77.2050 282.9138 15.30191407 22912
